{
  "users": [
    {
      "name": "Harshit",
      "emails": [
        "harshit184007@gmail.com",
        "p.patel@example.org"
      ],
      "phones": [
        "87654-21098",
        "76543-10987"
      ],
      "addresses": [
        {
          "city": "Ahmedabad",
          "street": "789 PQR Street",
          "zip": "380001"
        },
        {
          "city": "Chennai",
          "street": "101 LMN Avenue",
          "zip": "600001"
        }
      ],
      "image": {
        "size": "200x200",
        "file_size": "55KB"
      },
      "id": "2"
    },
    {
      "id": "3",
      "name": "Amit Sharma",
      "emails": [
        "amit.sharma@example.com",
        "a.sharma@example.org"
      ],
      "phones": [
        "76543-21098",
        "65432-10987"
      ],
      "addresses": [
        {
          "city": "Delhi",
          "street": "222 XYZ Street",
          "zip": "110002"
        },
        {
          "city": "Mumbai",
          "street": "333 ABC Avenue",
          "zip": "400002"
        }
      ],
      "image": {
        "size": "200x200",
        "file_size": "52KB"
      }
    },
    {
      "id": "4",
      "name": "Anita Verma",
      "emails": [
        "anita.verma@example.com",
        "a.verma@example.org"
      ],
      "phones": [
        "65432-56789",
        "54321-67890"
      ],
      "addresses": [
        {
          "city": "Lucknow",
          "street": "444 LMN Lane",
          "zip": "226001"
        },
        {
          "city": "Chandigarh",
          "street": "555 PQR Road",
          "zip": "160001"
        }
      ],
      "image": {
        "size": "200x200",
        "file_size": "48KB"
      }
    },
    {
      "name": "Neha Singh",
      "emails": [
        "neha.singh@example.com",
        "n.singh@example.org"
      ],
      "phones": [
        "76543-87654",
        "65432-98765"
      ],
      "addresses": [
        {
          "city": "Jaipur",
          "street": "777 GHI Lane",
          "zip": "302001"
        },
        {
          "city": "Kolkata",
          "street": "888 JKL Road",
          "zip": "70000"
        }
      ],
      "image": {
        "size": "200x200",
        "file_size": "46KB"
      },
      "id": "5"
    },
    {
      "id": "6",
      "name": "Vikram Verma",
      "emails": [
        "vikram.verma@example.com",
        "v.verma@example.org"
      ],
      "phones": [
        "54321-87654",
        "43210-98765"
      ],
      "addresses": [
        {
          "city": "Lucknow",
          "street": "999 PQR Lane",
          "zip": "226002"
        },
        {
          "city": "Delhi",
          "street": "101 ABC Avenue",
          "zip": "110002"
        }
      ],
      "image": {
        "size": "200x200",
        "file_size": "51KB"
      }
    },
    {
      "id": "7",
      "name": "Meera Kapoor",
      "emails": [
        "meera.kapoor@example.com",
        "m.kapoor@example.org"
      ],
      "phones": [
        "65432-10987",
        "54321-21098"
      ],
      "addresses": [
        {
          "city": "Mumbai",
          "street": "111 XYZ Street",
          "zip": "400003"
        },
        {
          "city": "Chennai",
          "street": "222 LMN Road",
          "zip": "600002"
        }
      ],
      "image": {
        "size": "200x200",
        "file_size": "54KB"
      }
    },
    {
      "id": "8",
      "name": "Aryan Malhotra",
      "emails": [
        "aryan.malhotra@example.com",
        "a.malhotra@example.org"
      ],
      "phones": [
        "76543-56789",
        "65432-67890"
      ],
      "addresses": [
        {
          "city": "Lucknow",
          "street": "333 GHI Road",
          "zip": "226003"
        },
        {
          "city": "Jaipur",
          "street": "444 JKL Avenue",
          "zip": "302003"
        }
      ],
      "image": {
        "size": "200x200",
        "file_size": "49KB"
      }
    },
    {
      "id": "9",
      "name": "Pooja Sharma",
      "emails": [
        "pooja.sharma@example.com",
        "p.sharma@example.org"
      ],
      "phones": [
        "87654-98765",
        "76543-87654"
      ],
      "addresses": [
        {
          "city": "Delhi",
          "street": "555 ABC Lane",
          "zip": "110003"
        },
        {
          "city": "Mumbai",
          "street": "666 XYZ Road",
          "zip": "400003"
        }
      ],
      "image": {
        "size": "200x200",
        "file_size": "53KB"
      }
    },
    {
      "id": "10",
      "name": "Rohan Kapoor",
      "emails": [
        "rohan.kapoor@example.com",
        "r.kapoor@example.org"
      ],
      "phones": [
        "54321-21098",
        "43210-10987"
      ],
      "addresses": [
        {
          "city": "Mumbai",
          "street": "777 PQR Street",
          "zip": "400004"
        },
        {
          "city": "Delhi",
          "street": "888 LMN Lane",
          "zip": "110004"
        }
      ],
      "image": {
        "size": "200x200",
        "file_size": "50KB"
      }
    },
    {
      "id": "11",
      "name": "Kavita Sharma",
      "emails": [
        "kavita.sharma@example.com",
        "k.sharma@example.org"
      ],
      "phones": [
        "98765-43210",
        "87654-32109"
      ],
      "addresses": [
        {
          "city": "Mumbai",
          "street": "11 ABC Lane",
          "zip": "400011"
        },
        {
          "city": "Delhi",
          "street": "456 XYZ Road",
          "zip": "110011"
        }
      ],
      "image": {
        "size": "200x200",
        "file_size": "50KB"
      }
    },
    {
      "id": "12",
      "name": "Vivek Verma",
      "emails": [
        "vivek.verma@example.com",
        "v.verma@example.org"
      ],
      "phones": [
        "87654-21098",
        "76543-10987"
      ],
      "addresses": [
        {
          "city": "Ahmedabad",
          "street": "789 PQR Street",
          "zip": "380012"
        },
        {
          "city": "Chennai",
          "street": "101 LMN Avenue",
          "zip": "600012"
        }
      ],
      "image": {
        "size": "200x200",
        "file_size": "55KB"
      }
    },
    {
      "id": "13",
      "name": "Manish Singh",
      "emails": [
        "manish.singh@example.com",
        "m.singh@example.org"
      ],
      "phones": [
        "76543-21098",
        "65432-10987"
      ],
      "addresses": [
        {
          "city": "Delhi",
          "street": "222 XYZ Street",
          "zip": "110012"
        },
        {
          "city": "Mumbai",
          "street": "333 ABC Avenue",
          "zip": "400012"
        }
      ],
      "image": {
        "size": "200x200",
        "file_size": "52KB"
      }
    },
    {
      "id": "14",
      "name": "Anjali Verma",
      "emails": [
        "anjali.verma@example.com",
        "a.verma@example.org"
      ],
      "phones": [
        "65432-56789",
        "54321-67890"
      ],
      "addresses": [
        {
          "city": "Lucknow",
          "street": "444 LMN Lane",
          "zip": "226011"
        },
        {
          "city": "Chandigarh",
          "street": "555 PQR Road",
          "zip": "160011"
        }
      ],
      "image": {
        "size": "200x200",
        "file_size": "48KB"
      }
    },
    {
      "id": "15",
      "name": "Naveen Singh",
      "emails": [
        "naveen.singh@example.com",
        "n.singh@example.org"
      ],
      "phones": [
        "76543-87654",
        "65432-98765"
      ],
      "addresses": [
        {
          "city": "Jaipur",
          "street": "777 GHI Lane",
          "zip": "302011"
        },
        {
          "city": "Kolkata",
          "street": "888 JKL Road",
          "zip": "700011"
        }
      ],
      "image": {
        "size": "200x200",
        "file_size": "46KB"
      }
    },
    {
      "id": "16",
      "name": "Vikas Verma",
      "emails": [
        "vikas.verma@example.com",
        "v.verma@example.org"
      ],
      "phones": [
        "54321-87654",
        "43210-98765"
      ],
      "addresses": [
        {
          "city": "Lucknow",
          "street": "999 PQR Road",
          "zip": "226012"
        },
        {
          "city": "Delhi",
          "street": "101 ABC Avenue",
          "zip": "110012"
        }
      ],
      "image": {
        "size": "200x200",
        "file_size": "51KB"
      }
    },
    {
      "id": "17",
      "name": "Priyanka Kapoor",
      "emails": [
        "priyanka.kapoor@example.com",
        "p.kapoor@example.org"
      ],
      "phones": [
        "65432-10987",
        "54321-21098"
      ],
      "addresses": [
        {
          "city": "Mumbai",
          "street": "111 XYZ Street",
          "zip": "400013"
        },
        {
          "city": "Chennai",
          "street": "222 LMN Avenue",
          "zip": "600012"
        }
      ],
      "image": {
        "size": "200x200",
        "file_size": "54KB"
      }
    },
    {
      "id": "18",
      "name": "Akash Malhotra",
      "emails": [
        "akash.malhotra@example.com",
        "a.malhotra@example.org"
      ],
      "phones": [
        "76543-56789",
        "65432-67890"
      ],
      "addresses": [
        {
          "city": "Lucknow",
          "street": "333 GHI Road",
          "zip": "226013"
        },
        {
          "city": "Jaipur",
          "street": "444 JKL Lane",
          "zip": "302013"
        }
      ],
      "image": {
        "size": "200x200",
        "file_size": "49KB"
      }
    },
    {
      "id": "19",
      "name": "Neha Sharma",
      "emails": [
        "neha.sharma@example.com",
        "n.sharma@example.org"
      ],
      "phones": [
        "87654-98765",
        "76543-87654"
      ],
      "addresses": [
        {
          "city": "Delhi",
          "street": "555 ABC Lane",
          "zip": "110013"
        },
        {
          "city": "Mumbai",
          "street": "666 XYZ Road",
          "zip": "400013"
        }
      ],
      "image": {
        "size": "200x200",
        "file_size": "53KB"
      }
    },
    {
      "id": "20",
      "name": "Rahul Kapoor",
      "emails": [
        "rahul.kapoor@example.com",
        "r.kapoor@example.org"
      ],
      "phones": [
        "54321-21098",
        "43210-10987"
      ],
      "addresses": [
        {
          "city": "Mumbai",
          "street": "777 PQR Street",
          "zip": "400014"
        },
        {
          "city": "Delhi",
          "street": "888 LMN Lane",
          "zip": "110014"
        }
      ],
      "image": {
        "size": "200x200",
        "file_size": "50KB"
      }
    },
    {
      "name": "harshit",
      "emails": [
        "adas@asdad",
        "dasdasd@sadasd"
      ],
      "phones": [
        "21212121",
        "42111111"
      ],
      "addresses": [
        {
          "city": "fdasfasf",
          "street": "asdfsdaf",
          "zip": "asdfsaf"
        }
      ],
      "image": "C:\\fakepath\\49.jpg",
      "fileName": "49.jpg",
      "fileSize": 3034,
      "fileType": "image/jpeg",
      "id": "1702039778010"
    },
    {
      "name": "Morty Smith",
      "emails": [
        "john.doe123@gmail.com"
      ],
      "phones": [
        "3289192821"
      ],
      "addresses": [
        {
          "city": "America ",
          "street": "45",
          "zip": "31283"
        },
        {
          "city": "amsterdam",
          "street": "1",
          "zip": "32"
        }
      ],
      "image": "C:\\fakepath\\16.jpg",
      "fileName": "16.jpg",
      "fileSize": 5216,
      "fileType": "image/jpeg",
      "id": "1702133782429"
    },
    {
      "name": "Aoi2",
      "emails": [
        "aoi@aoi.com",
        "aoi2@aoi2.com"
      ],
      "phones": [
        "123456789",
        "123456789"
      ],
      "addresses": [
        {
          "city": "city1",
          "street": "street1",
          "zip": "492001"
        },
        {
          "city": "city 2",
          "street": "st2",
          "zip": "492006"
        }
      ],
      "image": "C:\\fakepath\\6.jpg",
      "fileName": "6.jpg",
      "fileSize": 5554,
      "fileType": "image/jpeg",
      "id": "1702216249173"
    }
  ]
}